{"type": "FeatureCollection", "features": [ {"type": "Feature", "properties": {"norad_id": 66526, "name": "STARLINK-35932", "group": "last-30-days", "lat": 42.54493352428002, "lon": 141.98976152287332, "alt_km": 409.38092013534333, "timestamp": "2025-12-11T08:58:25.854209+00:00", "meta": {"OBJECT_NAME": "STARLINK-35932", "OBJECT_ID": "2025-265L", "EPOCH": "2025-12-11T04:00:01.998720", "MEAN_MOTION": 15.50596127, "ECCENTRICITY": 0.00016, "INCLINATION": 43, "RA_OF_ASC_NODE": 63.1725, "ARG_OF_PERICENTER": 261.403, "MEAN_ANOMALY": 103.166, "EPHEMERIS_TYPE": 0, "CLASSIFICATION_TYPE": "U", "NORAD_CAT_ID": 66526, "ELEMENT_SET_NO": 999, "REV_AT_EPOCH": 463, "BSTAR": -0.0010188, "MEAN_MOTION_DOT": -0.00059694, "MEAN_MOTION_DDOT": 0}, "tle": {"line1": "1 66526U 25265L   25345.16668980 -.00059694  00000+0 -10188-2 0  9992", "line2": "2 66526  43.0000  63.1725 0001600 261.4030 103.1660 15.50596127  4632"}}, "geometry": {"type": "Point", "coordinates": [141.98976152287332, 42.54493352428002]}}, {"type": "Feature", "properties": {"norad_id": 66527, "name": "STARLINK-35935", "group": "last-30-days", "lat": 42.74169223328928, "lon": 144.57179000044232, "alt_km": 409.3137556681386, "timestamp": "2025-12-11T08:58:25.854219+00:00", "meta": {"OBJECT_NAME": "STARLINK-35935", "OBJECT_ID": "2025-265M", "EPOCH": "2025-12-11T04:00:01.998720", "MEAN_MOTION": 15.5056931, "ECCENTRICITY": 0.0001549, "INCLINATION": 43, "RA_OF_ASC_NODE": 63.1676, "ARG_OF_PERICENTER": 258.0443, "MEAN_ANOMALY": 108.4469, "EPHEMERIS_TYPE": 0, "CLASSIFICATION_TYPE": "U", "NORAD_CAT_ID": 66527, "ELEMENT_SET_NO": 999, "REV_AT_EPOCH": 474, "BSTAR": 6.3658e-05, "MEAN_MOTION_DOT": 3.393e-05, "MEAN_MOTION_DDOT": 0}, "tle": {"line1": "1 66527U 25265M   25345.16668980  .00003393  00000+0  63658-4 0  9998", "line2": "2 66527  43.0000  63.1676 0001549 258.0443 108.4469 15.50569310  4741"}}, "geometry": {"type": "Point", "coordinates": [144.57179000044232, 42.74169223328928]}}, {"type": "Feature", "properties": {"norad_id": 66528, "name": "STARLINK-35928", "group": "last-30-days", "lat": 42.88136680814264, "lon": 147.19911482179324, "alt_km": 409.30260461047146, "timestamp": "2025-12-11T08:58:25.854231+00:00", "meta": {"OBJECT_NAME": "STARLINK-35928", "OBJECT_ID": "2025-265N", "EPOCH": "2025-12-11T04:00:01.998720", "MEAN_MOTION": 15.50626579, "ECCENTRICITY": 0.0001583, "INCLINATION": 43.0002, "RA_OF_ASC_NODE": 63.1636, "ARG_OF_PERICENTER": 264.5647, "MEAN_ANOMALY": 103.8341, "EPHEMERIS_TYPE": 0, "CLASSIFICATION_TYPE": "U", "NORAD_CAT_ID": 66528, "ELEMENT_SET_NO": 999, "REV_AT_EPOCH": 474, "BSTAR": -0.0020548, "MEAN_MOTION_DOT": -0.0011927, "MEAN_MOTION_DDOT": 0}, "tle": {"line1": "1 66528U 25265N   25345.16668980 -.00119270  00000+0 -20548-2 0  9992", "line2": "2 66528  43.0002  63.1636 0001583 264.5647 103.8341 15.50626579  4745"}}, "geometry": {"type": "Point", "coordinates": [147.19911482179324, 42.88136680814264]}}, {"type": "Feature", "properties": {"norad_id": 66529, "name": "STARLINK-35933", "group": "last-30-days", "lat": 42.88645355911844, "lon": 147.33062209275656, "alt_km": 415.6804665359732, "timestamp": "2025-12-11T08:58:25.854244+00:00", "meta": {"OBJECT_NAME": "STARLINK-35933", "OBJECT_ID": "2025-265P", "EPOCH": "2025-12-11T04:00:01.998720", "MEAN_MOTION": 15.49399693, "ECCENTRICITY": 0.0001796, "INCLINATION": 42.9998, "RA_OF_ASC_NODE": 63.1587, "ARG_OF_PERICENTER": 268.3485, "MEAN_ANOMALY": 101.4033, "EPHEMERIS_TYPE": 0, "CLASSIFICATION_TYPE": "U", "NORAD_CAT_ID": 66529, "ELEMENT_SET_NO": 999, "REV_AT_EPOCH": 474, "BSTAR": -0.041657, "MEAN_MOTION_DOT": -0.0208283, "MEAN_MOTION_DDOT": 0}, "tle": {"line1": "1 66529U 25265P   25345.16668980 -.02082830  00000+0 -41657-1 0  9999", "line2": "2 66529  42.9998  63.1587 0001796 268.3485 101.4033 15.49399693  4745"}}, "geometry": {"type": "Point", "coordinates": [147.33062209275656, 42.88645355911844]}}, {"type": "Feature", "properties": {"norad_id": 66530, "name": "STARLINK-35961", "group": "last-30-days", "lat": 42.97854957701115, "lon": 152.42135194787028, "alt_km": 409.3847224466099, "timestamp": "2025-12-11T08:58:25.854254+00:00", "meta": {"OBJECT_NAME": "STARLINK-35961", "OBJECT_ID": "2025-265Q", "EPOCH": "2025-12-11T04:00:01.998720", "MEAN_MOTION": 15.50645644, "ECCENTRICITY": 0.0001683, "INCLINATION": 43, "RA_OF_ASC_NODE": 63.1528, "ARG_OF_PERICENTER": 268.1518, "MEAN_ANOMALY": 104.0705, "EPHEMERIS_TYPE": 0, "CLASSIFICATION_TYPE": "U", "NORAD_CAT_ID": 66530, "ELEMENT_SET_NO": 999, "REV_AT_EPOCH": 474, "BSTAR": -0.0032488, "MEAN_MOTION_DOT": -0.00186906, "MEAN_MOTION_DDOT": 0}, "tle": {"line1": "1 66530U 25265Q   25345.16668980 -.00186906  00000+0 -32488-2 0  9991", "line2": "2 66530  43.0000  63.1528 0001683 268.1518 104.0705 15.50645644  4745"}}, "geometry": {"type": "Point", "coordinates": [152.42135194787028, 42.97854957701115]}}, {"type": "Feature", "properties": {"norad_id": 66531, "name": "STARLINK-35960", "group": "last-30-days", "lat": 42.938082662436706, "lon": 155.02156738195632, "alt_km": 409.2952134619245, "timestamp": "2025-12-11T08:58:25.854264+00:00", "meta": {"OBJECT_NAME": "STARLINK-35960", "OBJECT_ID": "2025-265R", "EPOCH": "2025-12-11T04:00:01.998720", "MEAN_MOTION": 15.50553642, "ECCENTRICITY": 0.0001576, "INCLINATION": 43, "RA_OF_ASC_NODE": 63.1477, "ARG_OF_PERICENTER": 259.8949, "MEAN_ANOMALY": 114.2689, "EPHEMERIS_TYPE": 0, "CLASSIFICATION_TYPE": "U", "NORAD_CAT_ID": 66531, "ELEMENT_SET_NO": 999, "REV_AT_EPOCH": 474, "BSTAR": 0.00059471, "MEAN_MOTION_DOT": 0.0003467, "MEAN_MOTION_DDOT": 0}, "tle": {"line1": "1 66531U 25265R   25345.16668980  .00034670  00000+0  59471-3 0  9992", "line2": "2 66531  43.0000  63.1477 0001576 259.8949 114.2689 15.50553642  4745"}}, "geometry": {"type": "Point", "coordinates": [155.02156738195632, 42.938082662436706]}}, {"type": "Feature", "properties": {"norad_id": 66532, "name": "STARLINK-35914", "group": "last-30-days", "lat": 42.83755697950747, "lon": 157.6347434619562, "alt_km": 409.3065526874725, "timestamp": "2025-12-11T08:58:25.854274+00:00", "meta": {"OBJECT_NAME": "STARLINK-35914", "OBJECT_ID": "2025-265S", "EPOCH": "2025-12-11T04:00:01.998720", "MEAN_MOTION": 15.50566497, "ECCENTRICITY": 0.0001578, "INCLINATION": 42.9998, "RA_OF_ASC_NODE": 63.1435, "ARG_OF_PERICENTER": 260.7201, "MEAN_ANOMALY": 115.3567, "EPHEMERIS_TYPE": 0, "CLASSIFICATION_TYPE": "U", "NORAD_CAT_ID": 66532, "ELEMENT_SET_NO": 999, "REV_AT_EPOCH": 474, "BSTAR": 7.9213e-05, "MEAN_MOTION_DOT": 4.306e-05, "MEAN_MOTION_DDOT": 0}, "tle": {"line1": "1 66532U 25265S   25345.16668980  .00004306  00000+0  79213-4 0  9993", "line2": "2 66532  42.9998  63.1435 0001578 260.7201 115.3567 15.50566497  4747"}}, "geometry": {"type": "Point", "coordinates": [157.6347434619562, 42.83755697950747]}}, {"type": "Feature", "properties": {"norad_id": 66533, "name": "STARLINK-35707", "group": "last-30-days", "lat": 42.67725814828556, "lon": 160.24541250345544, "alt_km": 409.31301756959874, "timestamp": "2025-12-11T08:58:25.854284+00:00", "meta": {"OBJECT_NAME": "STARLINK-35707", "OBJECT_ID": "2025-265T", "EPOCH": "2025-12-11T04:00:01.998720", "MEAN_MOTION": 15.50597118, "ECCENTRICITY": 0.000156, "INCLINATION": 42.9999, "RA_OF_ASC_NODE": 63.1383, "ARG_OF_PERICENTER": 262.0083, "MEAN_ANOMALY": 115.9814, "EPHEMERIS_TYPE": 0, "CLASSIFICATION_TYPE": "U", "NORAD_CAT_ID": 66533, "ELEMENT_SET_NO": 999, "REV_AT_EPOCH": 474, "BSTAR": -0.0011384, "MEAN_MOTION_DOT": -0.00066601, "MEAN_MOTION_DDOT": 0}, "tle": {"line1": "1 66533U 25265T   25345.16668980 -.00066601  00000+0 -11384-2 0  9995", "line2": "2 66533  42.9999  63.1383 0001560 262.0083 115.9814 15.50597118  4740"}}, "geometry": {"type": "Point", "coordinates": [160.24541250345544, 42.67725814828556]}}, {"type": "Feature", "properties": {"norad_id": 66534, "name": "STARLINK-35976", "group": "last-30-days", "lat": 42.45933311351373, "lon": 162.82669010684683, "alt_km": 409.36861115028023, "timestamp": "2025-12-11T08:58:25.854294+00:00", "meta": {"OBJECT_NAME": "STARLINK-35976", "OBJECT_ID": "2025-265U", "EPOCH": "2025-12-11T04:00:01.998720", "MEAN_MOTION": 15.50583248, "ECCENTRICITY": 0.0001623, "INCLINATION": 43.0001, "RA_OF_ASC_NODE": 63.1347, "ARG_OF_PERICENTER": 262.1888, "MEAN_ANOMALY": 117.7187, "EPHEMERIS_TYPE": 0, "CLASSIFICATION_TYPE": "U", "NORAD_CAT_ID": 66534, "ELEMENT_SET_NO": 999, "REV_AT_EPOCH": 474, "BSTAR": -0.00040123, "MEAN_MOTION_DOT": -0.00023812, "MEAN_MOTION_DDOT": 0}, "tle": {"line1": "1 66534U 25265U   25345.16668980 -.00023812  00000+0 -40123-3 0  9997", "line2": "2 66534  43.0001  63.1347 0001623 262.1888 117.7187 15.50583248  4743"}}, "geometry": {"type": "Point", "coordinates": [162.82669010684683, 42.45933311351373]}}, {"type": "Feature", "properties": {"norad_id": 66535, "name": "STARLINK-35514", "group": "last-30-days", "lat": 42.18103053548506, "lon": 165.40604068146953, "alt_km": 409.3127799097538, "timestamp": "2025-12-11T08:58:25.854305+00:00", "meta": {"OBJECT_NAME": "STARLINK-35514", "OBJECT_ID": "2025-265V", "EPOCH": "2025-12-11T04:00:01.998720", "MEAN_MOTION": 15.50607203, "ECCENTRICITY": 0.0001503, "INCLINATION": 42.9999, "RA_OF_ASC_NODE": 63.1299, "ARG_OF_PERICENTER": 261.6749, "MEAN_ANOMALY": 120.1512, "EPHEMERIS_TYPE": 0, "CLASSIFICATION_TYPE": "U", "NORAD_CAT_ID": 66535, "ELEMENT_SET_NO": 999, "REV_AT_EPOCH": 474, "BSTAR": -0.001285, "MEAN_MOTION_DOT": -0.00075082, "MEAN_MOTION_DDOT": 0}, "tle": {"line1": "1 66535U 25265V   25345.16668980 -.00075082  00000+0 -12850-2 0  9999", "line2": "2 66535  42.9999  63.1299 0001503 261.6749 120.1512 15.50607203  4749"}}, "geometry": {"type": "Point", "coordinates": [165.40604068146953, 42.18103053548506]}}]}